{"type": "FeatureCollection", "features": [ {"type": "Feature", "properties": {"norad_id": 30272, "name": "FENGYUN 1C DEB", "group": "fengyun-1c-debris", "lat": 74.85221666919249, "lon": 16.746557433678458, "alt_km": 805.0504936518564, "timestamp": "2025-12-10T09:57:44.974371+00:00", "meta": {"OBJECT_NAME": "FENGYUN 1C DEB", "OBJECT_ID": "1999-025YH", "EPOCH": "2025-12-10T04:30:19.485792", "MEAN_MOTION": 14.14693366, "ECCENTRICITY": 0.0051108, "INCLINATION": 98.9005, "RA_OF_ASC_NODE": 51.8897, "ARG_OF_PERICENTER": 110.9947, "MEAN_ANOMALY": 249.6704, "EPHEMERIS_TYPE": 0, "CLASSIFICATION_TYPE": "U", "NORAD_CAT_ID": 30272, "ELEMENT_SET_NO": 999, "REV_AT_EPOCH": 96820, "BSTAR": 0.0017298, "MEAN_MOTION_DOT": 3.328e-05, "MEAN_MOTION_DDOT": 0}, "tle": {"line1": "1 30272U 99025YH  25344.18772553  .00003328  00000+0  17298-2 0  9999", "line2": "2 30272  98.9005  51.8897 0051108 110.9947 249.6704 14.14693366968201"}}, "geometry": {"type": "Point", "coordinates": [16.746557433678458, 74.85221666919249]}}, {"type": "Feature", "properties": {"norad_id": 30273, "name": "FENGYUN 1C DEB", "group": "fengyun-1c-debris", "lat": 24.308143466145882, "lon": -176.92269768017505, "alt_km": 891.8609794298491, "timestamp": "2025-12-10T09:57:44.974381+00:00", "meta": {"OBJECT_NAME": "FENGYUN 1C DEB", "OBJECT_ID": "1999-025YJ", "EPOCH": "2025-12-10T00:46:50.755296", "MEAN_MOTION": 14.02654243, "ECCENTRICITY": 0.0060448, "INCLINATION": 98.8409, "RA_OF_ASC_NODE": 358.6748, "ARG_OF_PERICENTER": 257.1177, "MEAN_ANOMALY": 128.0895, "EPHEMERIS_TYPE": 0, "CLASSIFICATION_TYPE": "U", "NORAD_CAT_ID": 30273, "ELEMENT_SET_NO": 999, "REV_AT_EPOCH": 96491, "BSTAR": 0.0007136, "MEAN_MOTION_DOT": 1.076e-05, "MEAN_MOTION_DDOT": 0}, "tle": {"line1": "1 30273U 99025YJ  25344.03253189  .00001076  00000+0  71360-3 0  9992", "line2": "2 30273  98.8409 358.6748 0060448 257.1177 128.0895 14.02654243964911"}}, "geometry": {"type": "Point", "coordinates": [-176.92269768017505, 24.308143466145882]}}, {"type": "Feature", "properties": {"norad_id": 30274, "name": "FENGYUN 1C DEB", "group": "fengyun-1c-debris", "lat": -67.5010720438472, "lon": 136.15128608083288, "alt_km": 727.0399944422825, "timestamp": "2025-12-10T09:57:44.974392+00:00", "meta": {"OBJECT_NAME": "FENGYUN 1C DEB", "OBJECT_ID": "1999-025YK", "EPOCH": "2025-12-09T20:06:59.940000", "MEAN_MOTION": 14.5153247, "ECCENTRICITY": 0.0004801, "INCLINATION": 99.3019, "RA_OF_ASC_NODE": 112.2035, "ARG_OF_PERICENTER": 215.0596, "MEAN_ANOMALY": 302.5513, "EPHEMERIS_TYPE": 0, "CLASSIFICATION_TYPE": "U", "NORAD_CAT_ID": 30274, "ELEMENT_SET_NO": 999, "REV_AT_EPOCH": 98168, "BSTAR": 0.0042591, "MEAN_MOTION_DOT": 0.00017028, "MEAN_MOTION_DDOT": 0}, "tle": {"line1": "1 30274U 99025YK  25343.83819375  .00017028  00000+0  42591-2 0  9992", "line2": "2 30274  99.3019 112.2035 0004801 215.0596 302.5513 14.51532470981687"}}, "geometry": {"type": "Point", "coordinates": [136.15128608083288, -67.5010720438472]}}, {"type": "Feature", "properties": {"norad_id": 30275, "name": "FENGYUN 1C DEB", "group": "fengyun-1c-debris", "lat": -63.14400224161659, "lon": 86.08685923145651, "alt_km": 754.4826728916087, "timestamp": "2025-12-10T09:57:44.974402+00:00", "meta": {"OBJECT_NAME": "FENGYUN 1C DEB", "OBJECT_ID": "1999-025YL", "EPOCH": "2025-12-09T04:39:47.691936", "MEAN_MOTION": 14.4520004, "ECCENTRICITY": 0.00399309, "INCLINATION": 98.6283, "RA_OF_ASC_NODE": 67.3974, "ARG_OF_PERICENTER": 196.7923, "MEAN_ANOMALY": 230.4725, "EPHEMERIS_TYPE": 0, "CLASSIFICATION_TYPE": "U", "NORAD_CAT_ID": 30275, "ELEMENT_SET_NO": 999, "REV_AT_EPOCH": 98033, "BSTAR": 0.002894048, "MEAN_MOTION_DOT": 0.00010207, "MEAN_MOTION_DDOT": 0}, "tle": {"line1": "1 30275U 99025YL  25343.19430199  .00010207  00000+0  28940-2 0  9999", "line2": "2 30275  98.6283  67.3974 0039930 196.7923 230.4725 14.45200040980338"}}, "geometry": {"type": "Point", "coordinates": [86.08685923145651, -63.14400224161659]}}, {"type": "Feature", "properties": {"norad_id": 30276, "name": "FENGYUN 1C DEB", "group": "fengyun-1c-debris", "lat": 28.86287825006324, "lon": 51.024972912406966, "alt_km": 793.7523316651559, "timestamp": "2025-12-10T09:57:44.974412+00:00", "meta": {"OBJECT_NAME": "FENGYUN 1C DEB", "OBJECT_ID": "1999-025YM", "EPOCH": "2025-12-09T15:18:54.545184", "MEAN_MOTION": 14.26996246, "ECCENTRICITY": 0.0025249, "INCLINATION": 98.859, "RA_OF_ASC_NODE": 55.1699, "ARG_OF_PERICENTER": 100.3655, "MEAN_ANOMALY": 260.0373, "EPHEMERIS_TYPE": 0, "CLASSIFICATION_TYPE": "U", "NORAD_CAT_ID": 30276, "ELEMENT_SET_NO": 999, "REV_AT_EPOCH": 97486, "BSTAR": 0.002042, "MEAN_MOTION_DOT": 4.942e-05, "MEAN_MOTION_DDOT": 0}, "tle": {"line1": "1 30276U 99025YM  25343.63813131  .00004942  00000+0  20420-2 0  9994", "line2": "2 30276  98.8590  55.1699 0025249 100.3655 260.0373 14.26996246974860"}}, "geometry": {"type": "Point", "coordinates": [51.024972912406966, 28.86287825006324]}}, {"type": "Feature", "properties": {"norad_id": 30277, "name": "FENGYUN 1C DEB", "group": "fengyun-1c-debris", "lat": -31.59515975207065, "lon": -130.50180790299223, "alt_km": 773.5484515003809, "timestamp": "2025-12-10T09:57:44.974422+00:00", "meta": {"OBJECT_NAME": "FENGYUN 1C DEB", "OBJECT_ID": "1999-025YN", "EPOCH": "2025-12-10T04:07:46.447104", "MEAN_MOTION": 14.13555763, "ECCENTRICITY": 0.0124047, "INCLINATION": 98.9729, "RA_OF_ASC_NODE": 54.8314, "ARG_OF_PERICENTER": 184.9843, "MEAN_ANOMALY": 230.2019, "EPHEMERIS_TYPE": 0, "CLASSIFICATION_TYPE": "U", "NORAD_CAT_ID": 30277, "ELEMENT_SET_NO": 999, "REV_AT_EPOCH": 96753, "BSTAR": 0.0019184, "MEAN_MOTION_DOT": 3.847e-05, "MEAN_MOTION_DDOT": 0}, "tle": {"line1": "1 30277U 99025YN  25344.17206536  .00003847  00000+0  19184-2 0  9998", "line2": "2 30277  98.9729  54.8314 0124047 184.9843 230.2019 14.13555763967532"}}, "geometry": {"type": "Point", "coordinates": [-130.50180790299223, -31.59515975207065]}}, {"type": "Feature", "properties": {"norad_id": 30279, "name": "FENGYUN 1C DEB", "group": "fengyun-1c-debris", "lat": -42.00433135525448, "lon": -72.61621652580077, "alt_km": 902.4381094705805, "timestamp": "2025-12-10T09:57:44.974432+00:00", "meta": {"OBJECT_NAME": "FENGYUN 1C DEB", "OBJECT_ID": "1999-025YQ", "EPOCH": "2025-12-10T02:01:53.081760", "MEAN_MOTION": 14.23081379, "ECCENTRICITY": 0.0219845, "INCLINATION": 99.1494, "RA_OF_ASC_NODE": 278.6953, "ARG_OF_PERICENTER": 80.2219, "MEAN_ANOMALY": 347.3127, "EPHEMERIS_TYPE": 0, "CLASSIFICATION_TYPE": "U", "NORAD_CAT_ID": 30279, "ELEMENT_SET_NO": 999, "REV_AT_EPOCH": 97573, "BSTAR": 0.00091748, "MEAN_MOTION_DOT": 2.604e-05, "MEAN_MOTION_DDOT": 0}, "tle": {"line1": "1 30279U 99025YQ  25344.08464215  .00002604  00000+0  91748-3 0  9997", "line2": "2 30279  99.1494 278.6953 0219845  80.2219 347.3127 14.23081379975736"}}, "geometry": {"type": "Point", "coordinates": [-72.61621652580077, -42.00433135525448]}}, {"type": "Feature", "properties": {"norad_id": 30280, "name": "FENGYUN 1C DEB", "group": "fengyun-1c-debris", "lat": -63.63817135308811, "lon": -7.935175011304413, "alt_km": 862.3542357724318, "timestamp": "2025-12-10T09:57:44.974443+00:00", "meta": {"OBJECT_NAME": "FENGYUN 1C DEB", "OBJECT_ID": "1999-025YR", "EPOCH": "2025-12-09T17:57:51.645024", "MEAN_MOTION": 13.98328594, "ECCENTRICITY": 0.0080616, "INCLINATION": 98.7747, "RA_OF_ASC_NODE": 333.2677, "ARG_OF_PERICENTER": 337.9981, "MEAN_ANOMALY": 203.8653, "EPHEMERIS_TYPE": 0, "CLASSIFICATION_TYPE": "U", "NORAD_CAT_ID": 30280, "ELEMENT_SET_NO": 999, "REV_AT_EPOCH": 96364, "BSTAR": 0.0002348, "MEAN_MOTION_DOT": 3.02e-06, "MEAN_MOTION_DDOT": 0}, "tle": {"line1": "1 30280U 99025YR  25343.74851441  .00000302  00000+0  23480-3 0  9993", "line2": "2 30280  98.7747 333.2677 0080616 337.9981 203.8653 13.98328594963646"}}, "geometry": {"type": "Point", "coordinates": [-7.935175011304413, -63.63817135308811]}}, {"type": "Feature", "properties": {"norad_id": 30281, "name": "FENGYUN 1C DEB", "group": "fengyun-1c-debris", "lat": 54.734410921935506, "lon": -38.30201221042201, "alt_km": 872.4749476531233, "timestamp": "2025-12-10T09:57:44.974453+00:00", "meta": {"OBJECT_NAME": "FENGYUN 1C DEB", "OBJECT_ID": "1999-025YS", "EPOCH": "2025-12-09T17:30:59.936832", "MEAN_MOTION": 14.10471479, "ECCENTRICITY": 0.0027857, "INCLINATION": 98.7565, "RA_OF_ASC_NODE": 333.6199, "ARG_OF_PERICENTER": 245.9041, "MEAN_ANOMALY": 292.2935, "EPHEMERIS_TYPE": 0, "CLASSIFICATION_TYPE": "U", "NORAD_CAT_ID": 30281, "ELEMENT_SET_NO": 999, "REV_AT_EPOCH": 97178, "BSTAR": 0.00041617, "MEAN_MOTION_DOT": 7e-06, "MEAN_MOTION_DDOT": 0}, "tle": {"line1": "1 30281U 99025YS  25343.72986038  .00000700  00000+0  41617-3 0  9997", "line2": "2 30281  98.7565 333.6199 0027857 245.9041 292.2935 14.10471479971786"}}, "geometry": {"type": "Point", "coordinates": [-38.30201221042201, 54.734410921935506]}}, {"type": "Feature", "properties": {"norad_id": 30282, "name": "FENGYUN 1C DEB", "group": "fengyun-1c-debris", "lat": 29.99430725809558, "lon": 172.73843268636358, "alt_km": 964.2125348553054, "timestamp": "2025-12-10T09:57:44.974466+00:00", "meta": {"OBJECT_NAME": "FENGYUN 1C DEB", "OBJECT_ID": "1999-025YT", "EPOCH": "2025-12-09T20:13:50.180160", "MEAN_MOTION": 14.12966939, "ECCENTRICITY": 0.0210486, "INCLINATION": 98.5016, "RA_OF_ASC_NODE": 347.2417, "ARG_OF_PERICENTER": 10.4059, "MEAN_ANOMALY": 108.8255, "EPHEMERIS_TYPE": 0, "CLASSIFICATION_TYPE": "U", "NORAD_CAT_ID": 30282, "ELEMENT_SET_NO": 999, "REV_AT_EPOCH": 97310, "BSTAR": 0.00059163, "MEAN_MOTION_DOT": 1.319e-05, "MEAN_MOTION_DDOT": 0}, "tle": {"line1": "1 30282U 99025YT  25343.84294190  .00001319  00000+0  59163-3 0  9994", "line2": "2 30282  98.5016 347.2417 0210486  10.4059 108.8255 14.12966939973103"}}, "geometry": {"type": "Point", "coordinates": [172.73843268636358, 29.99430725809558]}}]}